CCSDS_OMM_VERS = 2.0
CREATION_DATE  = 
ORIGINATOR     = 

OBJECT_NAME    = STARLINK-36868
OBJECT_ID      = 2026-044V
CENTER_NAME    = EARTH
REF_FRAME      = TEME
TIME_SYSTEM    = UTC
MEAN_ELEMENT_THEORY = SGP/SGP4

EPOCH          = 2026-03-27T19:17:07.677312
MEAN_MOTION    = 15.75231286
ECCENTRICITY   = .0001637
INCLINATION    = 97.2840
RA_OF_ASC_NODE = 47.8671
ARG_OF_PERICENTER = 101.3257
MEAN_ANOMALY   = 258.8192

EPHEMERIS_TYPE = 0
CLASSIFICATION_TYPE = U
NORAD_CAT_ID   = 68120
ELEMENT_SET_NO = 999
REV_AT_EPOCH   = 433
BSTAR          = .85427E-3
MEAN_MOTION_DOT = .129471E-2
MEAN_MOTION_DDOT = 0

CCSDS_OMM_VERS = 2.0
CREATION_DATE  = 
ORIGINATOR     = 

OBJECT_NAME    = STARLINK-36855
OBJECT_ID      = 2026-044W
CENTER_NAME    = EARTH
REF_FRAME      = TEME
TIME_SYSTEM    = UTC
MEAN_ELEMENT_THEORY = SGP/SGP4

EPOCH          = 2026-03-27T20:47:35.712384
MEAN_MOTION    = 15.75209221
ECCENTRICITY   = .0001884
INCLINATION    = 97.2845
RA_OF_ASC_NODE = 47.9349
ARG_OF_PERICENTER = 105.5814
MEAN_ANOMALY   = 254.5660

EPHEMERIS_TYPE = 0
CLASSIFICATION_TYPE = U
NORAD_CAT_ID   = 68121
ELEMENT_SET_NO = 999
REV_AT_EPOCH   = 434
BSTAR          = .73609E-3
MEAN_MOTION_DOT = .111199E-2
MEAN_MOTION_DDOT = 0

CCSDS_OMM_VERS = 2.0
CREATION_DATE  = 
ORIGINATOR     = 

OBJECT_NAME    = STARLINK-36366
OBJECT_ID      = 2026-044X
CENTER_NAME    = EARTH
REF_FRAME      = TEME
TIME_SYSTEM    = UTC
MEAN_ELEMENT_THEORY = SGP/SGP4

EPOCH          = 2026-03-27T20:47:05.163072
MEAN_MOTION    = 15.75220196
ECCENTRICITY   = .0001582
INCLINATION    = 97.2842
RA_OF_ASC_NODE = 47.9359
ARG_OF_PERICENTER = 96.1769
MEAN_ANOMALY   = 263.9677

EPHEMERIS_TYPE = 0
CLASSIFICATION_TYPE = U
NORAD_CAT_ID   = 68122
ELEMENT_SET_NO = 999
REV_AT_EPOCH   = 434
BSTAR          = .76671E-3
MEAN_MOTION_DOT = .115948E-2
MEAN_MOTION_DDOT = 0

CCSDS_OMM_VERS = 2.0
CREATION_DATE  = 
ORIGINATOR     = 

OBJECT_NAME    = STARLINK-36922
OBJECT_ID      = 2026-044Y
CENTER_NAME    = EARTH
REF_FRAME      = TEME
TIME_SYSTEM    = UTC
MEAN_ELEMENT_THEORY = SGP/SGP4

EPOCH          = 2026-03-27T20:43:31.756800
MEAN_MOTION    = 15.75209874
ECCENTRICITY   = .0001165
INCLINATION    = 97.2839
RA_OF_ASC_NODE = 47.9392
ARG_OF_PERICENTER = 84.8385
MEAN_ANOMALY   = 275.3013

EPHEMERIS_TYPE = 0
CLASSIFICATION_TYPE = U
NORAD_CAT_ID   = 68123
ELEMENT_SET_NO = 999
REV_AT_EPOCH   = 434
BSTAR          = .66216E-3
MEAN_MOTION_DOT = .99884E-3
MEAN_MOTION_DDOT = 0

CCSDS_OMM_VERS = 2.0
CREATION_DATE  = 
ORIGINATOR     = 

OBJECT_NAME    = STARLINK-36938
OBJECT_ID      = 2026-044Z
CENTER_NAME    = EARTH
REF_FRAME      = TEME
TIME_SYSTEM    = UTC
MEAN_ELEMENT_THEORY = SGP/SGP4

EPOCH          = 2026-03-27T20:00:01.999008
MEAN_MOTION    = 15.75958816
ECCENTRICITY   = .0001736
INCLINATION    = 97.2839
RA_OF_ASC_NODE = 47.9602
ARG_OF_PERICENTER = 103.6849
MEAN_ANOMALY   = 204.8388

EPHEMERIS_TYPE = 0
CLASSIFICATION_TYPE = U
NORAD_CAT_ID   = 68124
ELEMENT_SET_NO = 999
REV_AT_EPOCH   = 431
BSTAR          = -.71535E-2
MEAN_MOTION_DOT = -.984068E-2
MEAN_MOTION_DDOT = 0

CCSDS_OMM_VERS = 2.0
CREATION_DATE  = 
ORIGINATOR     = 

OBJECT_NAME    = STARLINK-36839
OBJECT_ID      = 2026-044AA
CENTER_NAME    = EARTH
REF_FRAME      = TEME
TIME_SYSTEM    = UTC
MEAN_ELEMENT_THEORY = SGP/SGP4

EPOCH          = 2026-03-27T20:45:03.122208
MEAN_MOTION    = 15.75210319
ECCENTRICITY   = .0001067
INCLINATION    = 97.2840
RA_OF_ASC_NODE = 47.9378
ARG_OF_PERICENTER = 69.5305
MEAN_ANOMALY   = 290.6074

EPHEMERIS_TYPE = 0
CLASSIFICATION_TYPE = U
NORAD_CAT_ID   = 68125
ELEMENT_SET_NO = 999
REV_AT_EPOCH   = 434
BSTAR          = .56928E-3
MEAN_MOTION_DOT = .85713E-3
MEAN_MOTION_DDOT = 0

CCSDS_OMM_VERS = 2.0
CREATION_DATE  = 
ORIGINATOR     = 

OBJECT_NAME    = ECHOSTAR 25
OBJECT_ID      = 2026-045A
CENTER_NAME    = EARTH
REF_FRAME      = TEME
TIME_SYSTEM    = UTC
MEAN_ELEMENT_THEORY = SGP/SGP4

EPOCH          = 2026-03-27T11:07:38.822592
MEAN_MOTION    = 1.00271882
ECCENTRICITY   = .00023
INCLINATION    = 0.0565
RA_OF_ASC_NODE = 281.2848
ARG_OF_PERICENTER = 106.2791
MEAN_ANOMALY   = 195.3285

EPHEMERIS_TYPE = 0
CLASSIFICATION_TYPE = U
NORAD_CAT_ID   = 68126
ELEMENT_SET_NO = 999
REV_AT_EPOCH   = 17
BSTAR          = 0
MEAN_MOTION_DOT = .4E-6
MEAN_MOTION_DDOT = 0

CCSDS_OMM_VERS = 2.0
CREATION_DATE  = 
ORIGINATOR     = 

OBJECT_NAME    = ICOR SV
OBJECT_ID      = 2026-046A
CENTER_NAME    = EARTH
REF_FRAME      = TEME
TIME_SYSTEM    = UTC
MEAN_ELEMENT_THEORY = SGP/SGP4

EPOCH          = 2026-03-27T10:44:05.843040
MEAN_MOTION    = 15.92835095
ECCENTRICITY   = .0107861
INCLINATION    = 123.0764
RA_OF_ASC_NODE = 286.5264
ARG_OF_PERICENTER = 218.0227
MEAN_ANOMALY   = 141.3195

EPHEMERIS_TYPE = 0
CLASSIFICATION_TYPE = U
NORAD_CAT_ID   = 68127
ELEMENT_SET_NO = 999
REV_AT_EPOCH   = 242
BSTAR          = .63848E-3
MEAN_MOTION_DOT = .398663E-2
MEAN_MOTION_DDOT = .73242E-4

CCSDS_OMM_VERS = 2.0
CREATION_DATE  = 
ORIGINATOR     = 

OBJECT_NAME    = FIREFLY ALPHA R/B
OBJECT_ID      = 2026-046B
CENTER_NAME    = EARTH
REF_FRAME      = TEME
TIME_SYSTEM    = UTC
MEAN_ELEMENT_THEORY = SGP/SGP4

EPOCH          = 2026-03-27T19:28:38.535168
MEAN_MOTION    = 15.57140801
ECCENTRICITY   = .0015971
INCLINATION    = 123.0944
RA_OF_ASC_NODE = 284.9934
ARG_OF_PERICENTER = 16.5819
MEAN_ANOMALY   = 343.5761

EPHEMERIS_TYPE = 0
CLASSIFICATION_TYPE = U
NORAD_CAT_ID   = 68128
ELEMENT_SET_NO = 999
REV_AT_EPOCH   = 246
BSTAR          = .50766E-3
MEAN_MOTION_DOT = .37349E-3
MEAN_MOTION_DDOT = 0

CCSDS_OMM_VERS = 2.0
CREATION_DATE  = 
ORIGINATOR     = 

OBJECT_NAME    = GUOWANG GROUP 20 OBJECT A
OBJECT_ID      = 2026-047A
CENTER_NAME    = EARTH
REF_FRAME      = TEME
TIME_SYSTEM    = UTC
MEAN_ELEMENT_THEORY = SGP/SGP4

EPOCH          = 2026-03-27T07:56:57.542784
MEAN_MOTION    = 13.95700641
ECCENTRICITY   = .0003228
INCLINATION    = 50.0018
RA_OF_ASC_NODE = 358.7253
ARG_OF_PERICENTER = 358.1957
MEAN_ANOMALY   = 1.8932

EPHEMERIS_TYPE = 0
CLASSIFICATION_TYPE = U
NORAD_CAT_ID   = 68129
ELEMENT_SET_NO = 999
REV_AT_EPOCH   = 204
BSTAR          = .30515E-4
MEAN_MOTION_DOT = -.106E-5
MEAN_MOTION_DDOT = 0

CCSDS_OMM_VERS = 2.0
CREATION_DATE  = 
ORIGINATOR     = 

OBJECT_NAME    = GUOWANG GROUP 20 OBJECT B
OBJECT_ID      = 2026-047B
CENTER_NAME    = EARTH
REF_FRAME      = TEME
TIME_SYSTEM    = UTC
MEAN_ELEMENT_THEORY = SGP/SGP4

EPOCH          = 2026-03-26T18:09:03.081024
MEAN_MOTION    = 13.96591410
ECCENTRICITY   = .0000428
INCLINATION    = 50.0066
RA_OF_ASC_NODE = 1.0171
ARG_OF_PERICENTER = 307.3036
MEAN_ANOMALY   = 52.7826

EPHEMERIS_TYPE = 0
CLASSIFICATION_TYPE = U
NORAD_CAT_ID   = 68130
ELEMENT_SET_NO = 999
REV_AT_EPOCH   = 195
BSTAR          = .55036E-4
MEAN_MOTION_DOT = -.72E-6
MEAN_MOTION_DDOT = 0

CCSDS_OMM_VERS = 2.0
CREATION_DATE  = 
ORIGINATOR     = 

OBJECT_NAME    = GUOWANG GROUP 20 OBJECT C
OBJECT_ID      = 2026-047C
CENTER_NAME    = EARTH
REF_FRAME      = TEME
TIME_SYSTEM    = UTC
MEAN_ELEMENT_THEORY = SGP/SGP4

EPOCH          = 2026-03-26T19:49:39.748800
MEAN_MOTION    = 13.96862690
ECCENTRICITY   = .0000048
INCLINATION    = 49.9996
RA_OF_ASC_NODE = 0.7054
ARG_OF_PERICENTER = 49.5998
MEAN_ANOMALY   = 310.4907

EPHEMERIS_TYPE = 0
CLASSIFICATION_TYPE = U
NORAD_CAT_ID   = 68131
ELEMENT_SET_NO = 999
REV_AT_EPOCH   = 197
BSTAR          = .2709E-4
MEAN_MOTION_DOT = -.111E-5
MEAN_MOTION_DDOT = 0

