STARLINK-36868          
1 68120U 26044V   26086.80356108  .00129471  00000+0  85427-3 0  9998
2 68120  97.2840  47.8671 0001637 101.3257 258.8192 15.75231286  4333
STARLINK-36855          
1 68121U 26044W   26086.86638556  .00111199  00000+0  73609-3 0  9992
2 68121  97.2845  47.9349 0001884 105.5814 254.5660 15.75209221  4349
STARLINK-36366          
1 68122U 26044X   26086.86603198  .00115948  00000+0  76671-3 0  9995
2 68122  97.2842  47.9359 0001582  96.1769 263.9677 15.75220196  4343
STARLINK-36922          
1 68123U 26044Y   26086.86356200  .00099884  00000+0  66216-3 0  9999
2 68123  97.2839  47.9392 0001165  84.8385 275.3013 15.75209874  4343
STARLINK-36938          
1 68124U 26044Z   26086.83335647 -.00984068  00000+0 -71535-2 0  9997
2 68124  97.2839  47.9602 0001736 103.6849 204.8388 15.75958816  4313
STARLINK-36839          
1 68125U 26044AA  26086.86461947  .00085713  00000+0  56928-3 0  9991
2 68125  97.2840  47.9378 0001067  69.5305 290.6074 15.75210319  4347
ECHOSTAR 25             
1 68126U 26045A   26086.46364378  .00000040  00000+0  00000+0 0  9995
2 68126   0.0565 281.2848 0002300 106.2791 195.3285  1.00271882   175
ICOR SV                 
1 68127U 26046A   26086.44728985  .00398663  73242-4  63848-3 0  9990
2 68127 123.0764 286.5264 0107861 218.0227 141.3195 15.92835095  2426
FIREFLY ALPHA R/B       
1 68128U 26046B   26086.81155712  .00037349  00000+0  50766-3 0  9997
2 68128 123.0944 284.9934 0015971  16.5819 343.5761 15.57140801  2465
GUOWANG GROUP 20 OBJECT*
1 68129U 26047A   26086.33122156 -.00000106  00000+0  30515-4 0  9995
2 68129  50.0018 358.7253 0003228 358.1957   1.8932 13.95700641  2043
GUOWANG GROUP 20 OBJECT*
1 68130U 26047B   26085.75628566 -.00000072  00000+0  55036-4 0  9995
2 68130  50.0066   1.0171 0000428 307.3036  52.7826 13.96591410  1957
GUOWANG GROUP 20 OBJECT*
1 68131U 26047C   26085.82615450 -.00000111  00000+0  27090-4 0  9995
2 68131  49.9996   0.7054 0000048  49.5998 310.4907 13.96862690  1970
